{"type": "FeatureCollection", "features": [ {"type": "Feature", "properties": {"norad_id": 41335, "name": "SENTINEL-3A", "group": "resource", "lat": -76.7196825194872, "lon": -171.23943953805414, "alt_km": 810.6114834670343, "timestamp": "2025-12-09T16:56:36.237449+00:00", "meta": {"OBJECT_NAME": "SENTINEL-3A", "OBJECT_ID": "2016-011A", "EPOCH": "2025-12-09T10:40:47.472096", "MEAN_MOTION": 14.2674487, "ECCENTRICITY": 9.55e-05, "INCLINATION": 98.6211, "RA_OF_ASC_NODE": 48.5017, "ARG_OF_PERICENTER": 93.3111, "MEAN_ANOMALY": 266.8178, "EPHEMERIS_TYPE": 0, "CLASSIFICATION_TYPE": "U", "NORAD_CAT_ID": 41335, "ELEMENT_SET_NO": 999, "REV_AT_EPOCH": 51100, "BSTAR": 0.00013555, "MEAN_MOTION_DOT": 2.84e-06, "MEAN_MOTION_DDOT": 0}, "tle": {"line1": "1 41335U 16011A   25343.44499389  .00000284  00000+0  13555-3 0  9997", "line2": "2 41335  98.6211  48.5017 0000955  93.3111 266.8178 14.26744870511005"}}, "geometry": {"type": "Point", "coordinates": [-171.23943953805414, -76.7196825194872]}}, {"type": "Feature", "properties": {"norad_id": 41556, "name": "ZIYUAN 3-2 (ZY 3-2)", "group": "resource", "lat": 57.87697701552979, "lon": 45.96892665896251, "alt_km": 503.8934207074308, "timestamp": "2025-12-09T16:56:36.237459+00:00", "meta": {"OBJECT_NAME": "ZIYUAN 3-2 (ZY 3-2)", "OBJECT_ID": "2016-033A", "EPOCH": "2025-12-09T11:57:02.556864", "MEAN_MOTION": 15.21428125, "ECCENTRICITY": 0.0012426, "INCLINATION": 97.4042, "RA_OF_ASC_NODE": 57.718, "ARG_OF_PERICENTER": 261.7233, "MEAN_ANOMALY": 98.2594, "EPHEMERIS_TYPE": 0, "CLASSIFICATION_TYPE": "U", "NORAD_CAT_ID": 41556, "ELEMENT_SET_NO": 999, "REV_AT_EPOCH": 52914, "BSTAR": 0.00048777, "MEAN_MOTION_DOT": 0.00010912, "MEAN_MOTION_DDOT": 0}, "tle": {"line1": "1 41556U 16033A   25343.49794626  .00010912  00000+0  48777-3 0  9996", "line2": "2 41556  97.4042  57.7180 0012426 261.7233  98.2594 15.21428125529145"}}, "geometry": {"type": "Point", "coordinates": [45.96892665896251, 57.87697701552979]}}, {"type": "Feature", "properties": {"norad_id": 41599, "name": "CARTOSAT-2C", "group": "resource", "lat": 26.080328581102993, "lon": 37.30183864576691, "alt_km": 502.1738158018534, "timestamp": "2025-12-09T16:56:36.237470+00:00", "meta": {"OBJECT_NAME": "CARTOSAT-2C", "OBJECT_ID": "2016-040A", "EPOCH": "2025-12-09T12:05:08.988000", "MEAN_MOTION": 15.19249481, "ECCENTRICITY": 0.0010926, "INCLINATION": 97.4764, "RA_OF_ASC_NODE": 40.787, "ARG_OF_PERICENTER": 74.4858, "MEAN_ANOMALY": 285.7582, "EPHEMERIS_TYPE": 0, "CLASSIFICATION_TYPE": "U", "NORAD_CAT_ID": 41599, "ELEMENT_SET_NO": 999, "REV_AT_EPOCH": 52491, "BSTAR": 0.00048426, "MEAN_MOTION_DOT": 0.00010159, "MEAN_MOTION_DDOT": 0}, "tle": {"line1": "1 41599U 16040A   25343.50357625  .00010159  00000+0  48426-3 0  9991", "line2": "2 41599  97.4764  40.7870 0010926  74.4858 285.7582 15.19249481524919"}}, "geometry": {"type": "Point", "coordinates": [37.30183864576691, 26.080328581102993]}}, {"type": "Feature", "properties": {"norad_id": 41601, "name": "SKYSAT-C1", "group": "resource", "lat": -62.20729372042691, "lon": 34.336692201393, "alt_km": 475.47968672216757, "timestamp": "2025-12-09T16:56:36.237480+00:00", "meta": {"OBJECT_NAME": "SKYSAT-C1", "OBJECT_ID": "2016-040C", "EPOCH": "2025-12-09T09:22:57.016416", "MEAN_MOTION": 15.32493174, "ECCENTRICITY": 0.0002745, "INCLINATION": 96.9826, "RA_OF_ASC_NODE": 20.5932, "ARG_OF_PERICENTER": 25.1532, "MEAN_ANOMALY": 334.9844, "EPHEMERIS_TYPE": 0, "CLASSIFICATION_TYPE": "U", "NORAD_CAT_ID": 41601, "ELEMENT_SET_NO": 999, "REV_AT_EPOCH": 52876, "BSTAR": 0.00040405, "MEAN_MOTION_DOT": 0.00012613, "MEAN_MOTION_DDOT": 0}, "tle": {"line1": "1 41601U 16040C   25343.39093769  .00012613  00000+0  40405-3 0  9994", "line2": "2 41601  96.9826  20.5932 0002745  25.1532 334.9844 15.32493174528763"}}, "geometry": {"type": "Point", "coordinates": [34.336692201393, -62.20729372042691]}}, {"type": "Feature", "properties": {"norad_id": 41603, "name": "LAPAN-A3", "group": "resource", "lat": 82.59435537699429, "lon": -123.86395102459109, "alt_km": 465.7568465458835, "timestamp": "2025-12-09T16:56:36.237491+00:00", "meta": {"OBJECT_NAME": "LAPAN-A3", "OBJECT_ID": "2016-040E", "EPOCH": "2025-12-09T11:50:22.386624", "MEAN_MOTION": 15.31511824, "ECCENTRICITY": 0.0010046, "INCLINATION": 97.1431, "RA_OF_ASC_NODE": 341.1673, "ARG_OF_PERICENTER": 346.3926, "MEAN_ANOMALY": 13.7043, "EPHEMERIS_TYPE": 0, "CLASSIFICATION_TYPE": "U", "NORAD_CAT_ID": 41603, "ELEMENT_SET_NO": 999, "REV_AT_EPOCH": 52576, "BSTAR": 0.00020453, "MEAN_MOTION_DOT": 6.158e-05, "MEAN_MOTION_DDOT": 0}, "tle": {"line1": "1 41603U 16040E   25343.49331466  .00006158  00000+0  20453-3 0  9994", "line2": "2 41603  97.1431 341.1673 0010046 346.3926  13.7043 15.31511824525764"}}, "geometry": {"type": "Point", "coordinates": [-123.86395102459109, 82.59435537699429]}}, {"type": "Feature", "properties": {"norad_id": 41604, "name": "BIROS", "group": "resource", "lat": 7.508957220496335, "lon": 14.081718956575743, "alt_km": 310.90460989384155, "timestamp": "2025-12-09T16:56:36.237502+00:00", "meta": {"OBJECT_NAME": "BIROS", "OBJECT_ID": "2016-040F", "EPOCH": "2025-12-09T01:47:24.559584", "MEAN_MOTION": 15.88119261, "ECCENTRICITY": 0.00032029, "INCLINATION": 97.0691, "RA_OF_ASC_NODE": 14.3635, "ARG_OF_PERICENTER": 156.004, "MEAN_ANOMALY": 204.1383, "EPHEMERIS_TYPE": 0, "CLASSIFICATION_TYPE": "U", "NORAD_CAT_ID": 41604, "ELEMENT_SET_NO": 999, "REV_AT_EPOCH": 52814, "BSTAR": 0.00066699357, "MEAN_MOTION_DOT": 0.00184271, "MEAN_MOTION_DDOT": 0}, "tle": {"line1": "1 41604U 16040F   25343.07458981  .00184271  00000+0  66699-3 0  9996", "line2": "2 41604  97.0691  14.3635 0003202 156.0040 204.1383 15.88119261528147"}}, "geometry": {"type": "Point", "coordinates": [14.081718956575743, 7.508957220496335]}}, {"type": "Feature", "properties": {"norad_id": 41727, "name": "GAOFEN-3", "group": "resource", "lat": 56.098822352761296, "lon": -177.9539766524407, "alt_km": 745.2628585114135, "timestamp": "2025-12-09T16:56:36.237513+00:00", "meta": {"OBJECT_NAME": "GAOFEN-3", "OBJECT_ID": "2016-049A", "EPOCH": "2025-12-09T13:02:43.737792", "MEAN_MOTION": 14.42212803, "ECCENTRICITY": 0.0001519, "INCLINATION": 98.4036, "RA_OF_ASC_NODE": 349.1782, "ARG_OF_PERICENTER": 64.1669, "MEAN_ANOMALY": 295.9677, "EPHEMERIS_TYPE": 0, "CLASSIFICATION_TYPE": "U", "NORAD_CAT_ID": 41727, "ELEMENT_SET_NO": 999, "REV_AT_EPOCH": 49131, "BSTAR": 7.434e-05, "MEAN_MOTION_DOT": 2.01e-06, "MEAN_MOTION_DDOT": 0}, "tle": {"line1": "1 41727U 16049A   25343.54356178  .00000201  00000+0  74340-4 0  9991", "line2": "2 41727  98.4036 349.1782 0001519  64.1669 295.9677 14.42212803491315"}}, "geometry": {"type": "Point", "coordinates": [-177.9539766524407, 56.098822352761296]}}, {"type": "Feature", "properties": {"norad_id": 41771, "name": "SKYSAT-C4", "group": "resource", "lat": 52.15884440679699, "lon": -161.94107437244733, "alt_km": 434.3119498943488, "timestamp": "2025-12-09T16:56:36.237523+00:00", "meta": {"OBJECT_NAME": "SKYSAT-C4", "OBJECT_ID": "2016-058B", "EPOCH": "2025-12-09T00:49:12.473760", "MEAN_MOTION": 15.42085038, "ECCENTRICITY": 0.00011565, "INCLINATION": 96.9374, "RA_OF_ASC_NODE": 8.402, "ARG_OF_PERICENTER": 132.7744, "MEAN_ANOMALY": 227.3602, "EPHEMERIS_TYPE": 0, "CLASSIFICATION_TYPE": "U", "NORAD_CAT_ID": 41771, "ELEMENT_SET_NO": 999, "REV_AT_EPOCH": 51610, "BSTAR": 0.00040944192, "MEAN_MOTION_DOT": 0.00017439, "MEAN_MOTION_DDOT": 0}, "tle": {"line1": "1 41771U 16058B   25343.03417215  .00017439  00000+0  40944-3 0  9997", "line2": "2 41771  96.9374   8.4020 0001156 132.7744 227.3602 15.42085038516106"}}, "geometry": {"type": "Point", "coordinates": [-161.94107437244733, 52.15884440679699]}}, {"type": "Feature", "properties": {"norad_id": 41772, "name": "SKYSAT-C5", "group": "resource", "lat": 61.53995410452371, "lon": -139.1746791565872, "alt_km": 452.7437541861191, "timestamp": "2025-12-09T16:56:36.237536+00:00", "meta": {"OBJECT_NAME": "SKYSAT-C5", "OBJECT_ID": "2016-058C", "EPOCH": "2025-12-09T02:21:16.658208", "MEAN_MOTION": 15.35258883, "ECCENTRICITY": 0.00022673, "INCLINATION": 97.0758, "RA_OF_ASC_NODE": 26.9942, "ARG_OF_PERICENTER": 143.2849, "MEAN_ANOMALY": 216.8551, "EPHEMERIS_TYPE": 0, "CLASSIFICATION_TYPE": "U", "NORAD_CAT_ID": 41772, "ELEMENT_SET_NO": 999, "REV_AT_EPOCH": 51460, "BSTAR": 0.00035120172, "MEAN_MOTION_DOT": 0.00011953, "MEAN_MOTION_DDOT": 0}, "tle": {"line1": "1 41772U 16058C   25343.09810947  .00011953  00000+0  35120-3 0  9998", "line2": "2 41772  97.0758  26.9942 0002267 143.2849 216.8551 15.35258883514601"}}, "geometry": {"type": "Point", "coordinates": [-139.1746791565872, 61.53995410452371]}}, {"type": "Feature", "properties": {"norad_id": 41773, "name": "SKYSAT-C2", "group": "resource", "lat": 72.4304757414039, "lon": -148.67913526186692, "alt_km": 446.23673459848396, "timestamp": "2025-12-09T16:56:36.237546+00:00", "meta": {"OBJECT_NAME": "SKYSAT-C2", "OBJECT_ID": "2016-058D", "EPOCH": "2025-12-09T00:51:36.970848", "MEAN_MOTION": 15.37139367, "ECCENTRICITY": 0.00046119, "INCLINATION": 97.0362, "RA_OF_ASC_NODE": 7.7195, "ARG_OF_PERICENTER": 43.8765, "MEAN_ANOMALY": 316.2846, "EPHEMERIS_TYPE": 0, "CLASSIFICATION_TYPE": "U", "NORAD_CAT_ID": 41773, "ELEMENT_SET_NO": 999, "REV_AT_EPOCH": 51579, "BSTAR": 0.00037735434, "MEAN_MOTION_DOT": 0.00013655, "MEAN_MOTION_DDOT": 0}, "tle": {"line1": "1 41773U 16058D   25343.03584457  .00013655  00000+0  37735-3 0  9992", "line2": "2 41773  97.0362   7.7195 0004611  43.8765 316.2846 15.37139367515797"}}, "geometry": {"type": "Point", "coordinates": [-148.67913526186692, 72.4304757414039]}}]}